CZ-4B R/B               
1 28059U 03049C   19077.70092137 -.00000006  00000-0  10181-4 0  9995
2 28059  98.5012 343.8524 0051326  94.6080 295.7399 14.52555087816522
CZ-2C R/B               
1 28222U 04012C   19077.47702056  .00000245  00000-0  18743-4 0  9996
2 28222  97.6149  35.8721 0048188 152.9891 321.7157 15.09998786817020
SL-16 R/B               
1 28353U 04021B   19077.70766861 -.00000263  00000-0 -11294-3 0  9996
2 28353  71.0019 177.2494 0007396 296.2056  63.8306 14.14218025762571
CZ-2C R/B               
1 28480U 04046B   19077.62764831 -.00000022  00000-0  64258-5 0  9992
2 28480  98.1422 141.3215 0142911 136.2110  25.8388 14.25694660745327
ARIANE 5 R/B            
1 28499U 04049H   19077.76154524  .00000013  00000-0  91574-5 0  9992
2 28499  98.0489 173.3036 0091148 309.9210 212.8957 14.79952146768588
CZ-2D R/B               
1 28738U 05024B   19077.90945179  .00000373  00000-0  25554-4 0  9995
2 28738  97.4253 109.5156 0010991 327.1330  32.9216 15.11745867752424
SUZAKU (ASTRO-EII)      
1 28773U 05025A   19077.52418864  .00000953  00000-0  42736-4 0  9994
2 28773  31.3823 106.3688 0004614 290.2970  69.7181 15.16953278754505
ALOS (DAICHI)           
1 28931U 06002A   19077.64195108  .00000085  00000-0  25402-4 0  9999
2 28931  97.8203  81.7341 0002374  89.2775 270.8700 14.62587866700927
H-2A R/B                
1 28932U 06002B   19077.88622912  .00000475  00000-0  49886-4 0  9999
2 28932  98.2700  38.7673 0089576  16.5408   5.7152 14.91920901713068
AKARI (ASTRO-F)         
1 28939U 06005A   19077.71591151  .00002413  00000-0  69628-4 0  9991
2 28939  98.1913 356.8741 0099802 120.0484 241.0701 15.32053510710913
RESURS-DK 1             
1 29228U 06021A   19077.10803062  .00000099  00000-0  14766-4 0  9992
2 29228  69.9340 272.1663 0001620  70.7041 289.4294 15.02414415704052
GENESIS 1               
1 29252U 06029A   19077.76629096  .00000480  00000-0  33402-4 0  9994
2 29252  64.5036 355.0724 0053464 253.8625 105.6609 15.17613929698863
CZ-4B R/B               
1 29507U 06046C   19077.62175383 -.00000713  00000-0 -50307-4 0  9990
2 29507  97.7745  95.4818 0047217 254.8833 104.7164 15.00415043676862
CZ-2C R/B               
1 31114U 07010B   19077.27099533  .00000003  00000-0  19887-4 0  9990
2 31114  98.3257 314.2727 0060136 157.5070 202.8764 14.19290511618156
COSMO-SKYMED 1          
1 31598U 07023A   19077.76885450  .00000068  00000-0  15101-4 0  9991
2 31598  97.8894 262.4351 0001724  84.9785 275.1618 14.82152376637185
GENESIS 2               
1 31789U 07028A   19077.33702548  .00000442  00000-0  32389-4 0  9990
2 31789  64.5042  36.8669 0044459 300.1950  59.4772 15.16844738645829
COSMOS 2428             
1 31792U 07029A   19077.62886467 -.00000326  00000-0 -15051-3 0  9999
2 31792  70.9555 151.4882 0008501  22.1345 338.0141 14.12529529604364
SL-16 R/B               
1 31793U 07029B   19077.57476956 -.00000106  00000-0 -30188-4 0  9997
2 31793  70.9735 126.0900 0002732 263.7439 248.4590 14.14406808605089
KORONAS-FOTON           
1 33504U 09003A   19077.13409995  .00000609  00000-0  30430-4 0  9990
2 33504  82.4427 317.7630 0020657  63.1548 297.1793 15.15359983558126
H-2A R/B                
1 38341U 12025E   19077.75517036  .00000119  00000-0  21609-4 0  9990
2 38341  98.4364 200.0415 0054422 260.0387  99.4680 14.83858995369712
CUSAT 2 & FALCON 9 R/B  
1 39271U 13055G   19077.86017848  .00004799  00000-0  11648-3 0  9994
2 39271  80.9688  36.5864 0606287  99.1870 267.8383 14.43963799284745
SL-4 R/B                
1 39679U 14021B   19077.96109059 -.00000105  00000-0  13442-4 0  9990
2 39679  51.6163  65.1937 0173194 164.2026 196.4443 15.06023209270227
ALOS-2                  
1 39766U 14029A   19077.78649509  .00000141  00000-0  25816-4 0  9991
2 39766  97.9190 175.9385 0001749  84.3019 275.8397 14.79475055260176
SL-27 R/B               
1 40354U 14084B   19077.91640290  .00000831  00000-0  21952-4 0  9993
2 40354  74.7366 252.0912 0039217 310.4558  49.3236 15.39560382237865
ASTRO-H (HITOMI)        
1 41337U 16012A   19077.94777353  .00000281  00000-0  15857-4 0  9998
2 41337  31.0065  23.9245 0012561 240.2937 119.6448 14.98557646168960
TIANGONG-2              
1 41765U 16057A   19077.91195602  .00004913  00000-0  61390-4 0  9999
2 41765  42.7836 145.2742 0008179 351.8166   0.9446 15.60958427142923
SHENZHOU-11 MODULE      
1 41868U 16061G   19077.71058279  .00016379  00000-0  96942-4 0  9994
2 41868  42.7934  81.6870 0003687 127.4939  19.9125 15.77805181133565
SAOCOM 1A               
1 43641U 18076A   19077.77712251  .00000006  00000-0  72644-5 0  9990
2 43641  97.8922 265.4206 0001565  86.0990 274.0428 14.82155766 23952
